NORAD_CAT_ID,OBJECT_NAME,OBJECT_TYPE,EPOCH,MEAN_MOTION,ECCENTRICITY,INCLINATION,RA_OF_ASC_NODE,ARG_OF_PERICENTER,MEAN_ANOMALY,BSTAR,MEAN_MOTION_DOT,MEAN_MOTION_DDOT,TLE_LINE0,TLE_LINE1,TLE_LINE2,SEMIMAJOR_AXIS,PERIOD,APOGEE,PERIGEE,DECAYED
52339.0,STARLINK-3792,PAYLOAD,2023-10-02 02:53:39,15.08846689,0.0001644,53.2163,242.1932,91.1792,268.9389,-9.7186e-07,-3.04e-06,0.0,0 STARLINK-3792,1 52339U 22045J   23275.12060089 -.00000304  00000-0 -97186-6 0  9996,2 52339  53.2163 242.1932 0001644  91.1792 268.9389 15.08846689 81358,6917.86,95.437,540.862,538.588,0.0
52339.0,STARLINK-3792,PAYLOAD,2023-10-02 07:39:49,15.0884931,0.0001569,53.2167,241.2999,97.0157,263.1014,-1.1427e-06,-3.06e-06,0.0,0 STARLINK-3792,1 52339U 22045J   23275.31931790 -.00000306  00000-0 -11427-5 0  9998,2 52339  53.2167 241.2999 0001569  97.0157 263.1014 15.08849310 81380,6917.852,95.437,540.802,538.632,0.0
52339.0,STARLINK-3792,PAYLOAD,2023-10-03 04:19:50,15.08847703,0.0001411,53.2155,237.435,97.974,262.1412,0.00018834,2.711e-05,0.0,0 STARLINK-3792,1 52339U 22045J   23276.18044008  .00002711  00000-0  18834-3 0  9998,2 52339  53.2155 237.4350 0001411  97.9740 262.1412 15.08847703 81518,6917.857,95.437,540.698,538.746,0.0
52339.0,STARLINK-3792,PAYLOAD,2023-10-03 21:49:05,15.08836926,0.0001382,53.2151,234.1642,97.6889,262.426,3.2891e-05,2.36e-06,0.0,0 STARLINK-3792,1 52339U 22045J   23276.90908653  .00000236  00000-0  32891-4 0  9993,2 52339  53.2151 234.1642 0001382  97.6889 262.4260 15.08836926 81621,6917.89,95.438,540.711,538.799,0.0
52339.0,STARLINK-3792,PAYLOAD,2023-10-04 13:42:56,15.08842546,0.0001397,53.216,231.1923,98.5783,261.5367,3.5006e-05,2.69e-06,0.0,0 STARLINK-3792,1 52339U 22045J   23277.57148324  .00000269  00000-0  35006-4 0  9995,2 52339  53.2160 231.1923 0001397  98.5783 261.5367 15.08842546 81723,6917.873,95.437,540.704,538.771,0.0
52339.0,STARLINK-3792,PAYLOAD,2023-10-04 21:39:52,15.08836556,0.000133,53.2173,229.7077,93.2228,266.8916,3.2426e-05,2.28e-06,0.0,0 STARLINK-3792,1 52339U 22045J   23277.90268828  .00000228  00000-0  32426-4 0  9992,2 52339  53.2173 229.7077 0001330  93.2228 266.8916 15.08836556 81770,6917.891,95.438,540.676,538.836,0.0
52339.0,STARLINK-3792,PAYLOAD,2023-10-05 02:26:01,15.08844407,0.0001503,53.2168,228.8175,87.7469,272.3696,8.1031e-05,1.002e-05,0.0,0 STARLINK-3792,1 52339U 22045J   23278.10140507  .00001002  00000-0  81031-4 0  9995,2 52339  53.2168 228.8175 0001503  87.7469 272.3696 15.08844407 81805,6917.867,95.437,540.772,538.692,0.0
52339.0,STARLINK-3792,PAYLOAD,2023-10-05 13:33:43,15.0883596,0.0001578,53.2157,226.7308,86.8665,273.2507,4.2699e-05,3.92e-06,0.0,0 STARLINK-3792,1 52339U 22045J   23278.56508948  .00000392  00000-0  42699-4 0  9990,2 52339  53.2157 226.7308 0001578  86.8665 273.2507 15.08835960 81870,6917.893,95.438,540.849,538.666,0.0
52339.0,STARLINK-3792,PAYLOAD,2023-10-06 05:27:34,15.08846104,0.0001719,53.2165,223.7609,91.3733,268.7456,0.00019759,2.859e-05,0.0,0 STARLINK-3792,1 52339U 22045J   23279.22748698  .00002859  00000-0  19759-3 0  9992,2 52339  53.2165 223.7609 0001719  91.3733 268.7456 15.08846104 81979,6917.862,95.437,540.916,538.538,0.0
52339.0,STARLINK-3792,PAYLOAD,2023-10-06 13:24:30,15.08838814,0.0001901,53.2162,222.2714,79.878,280.2427,0.00014681,2.049e-05,0.0,0 STARLINK-3792,1 52339U 22045J   23279.55869102  .00002049  00000-0  14681-3 0  9992,2 52339  53.2162 222.2714 0001901  79.8780 280.2427 15.08838814 82026,6917.884,95.438,541.064,538.434,0.0
52339.0,STARLINK-3792,PAYLOAD,2023-10-07 13:15:18,15.08839113,0.0002183,53.2167,217.8092,78.7883,281.3354,-9.2471e-05,-1.76e-05,0.0,0 STARLINK-3792,1 52339U 22045J   23280.55229373 -.00001760  00000-0 -92471-4 0  9999,2 52339  53.2167 217.8092 0002183  78.7883 281.3354 15.08839113 82175,6917.883,95.438,541.258,538.238,0.0
52339.0,STARLINK-3792,PAYLOAD,2023-10-08 01:58:23,15.08846108,0.0001383,53.2147,215.4329,95.1709,264.9441,3.6529e-05,2.94e-06,0.0,0 STARLINK-3792,1 52339U 22045J   23281.08221153  .00000294  00000-0  36529-4 0  9997,2 52339  53.2147 215.4329 0001383  95.1709 264.9441 15.08846108 82256,6917.862,95.437,540.683,538.77,0.0
52339.0,STARLINK-3792,PAYLOAD,2023-10-08 05:09:08,15.08855858,0.000176,53.2172,214.8365,80.7945,279.3246,0.00016482,2.337e-05,0.0,0 STARLINK-3792,1 52339U 22045J   23281.21468288  .00002337  00000-0  16482-3 0  9999,2 52339  53.2172 214.8365 0001760  80.7945 279.3246 15.08855858 82275,6917.832,95.437,540.914,538.479,0.0
52339.0,STARLINK-3792,PAYLOAD,2023-10-08 13:06:04,15.08852118,0.0001665,53.2167,213.3501,91.3104,268.8079,7.0996e-05,8.42e-06,0.0,0 STARLINK-3792,1 52339U 22045J   23281.54588542  .00000842  00000-0  70996-4 0  9991,2 52339  53.2167 213.3501 0001665  91.3104 268.8079 15.08852118 82323,6917.843,95.437,540.86,538.557,0.0
52339.0,STARLINK-3792,PAYLOAD,2023-10-08 19:27:37,15.0884459,0.0001696,53.2167,212.161,86.8874,273.2312,0.0001879,2.704e-05,0.0,0 STARLINK-3792,1 52339U 22045J   23281.81084770  .00002704  00000-0  18790-3 0  9997,2 52339  53.2167 212.1610 0001696  86.8874 273.2312 15.08844590 82367,6917.866,95.437,540.905,538.558,0.0
52339.0,STARLINK-3792,PAYLOAD,2023-10-09 01:49:09,15.08856859,0.0001427,53.2139,210.9725,91.9057,268.2099,0.00019915,2.884e-05,0.0,0 STARLINK-3792,1 52339U 22045J   23282.07580215  .00002884  00000-0  19915-3 0  9990,2 52339  53.2139 210.9725 0001427  91.9057 268.2099 15.08856859 82403,6917.829,95.436,540.681,538.707,0.0
52339.0,STARLINK-3792,PAYLOAD,2023-10-09 12:56:52,15.08833259,0.0002464,53.2162,208.8898,79.2354,280.8915,-4.5149e-05,-1.007e-05,0.0,0 STARLINK-3792,1 52339U 22045J   23282.53949683 -.00001007  00000-0 -45149-4 0  9996,2 52339  53.2162 208.8898 0002464  79.2354 280.8915 15.08833259 82470,6917.901,95.438,541.471,538.061,0.0
52339.0,STARLINK-3792,PAYLOAD,2023-10-09 19:18:24,15.08833809,0.0001919,53.2155,207.7014,75.881,284.2395,-4.3227e-07,-2.95e-06,0.0,0 STARLINK-3792,1 52339U 22045J   23282.80445543 -.00000295  00000-0 -43227-6 0  9997,2 52339  53.2155 207.7014 0001919  75.8810 284.2395 15.08833809 82519,6917.899,95.438,541.092,538.437,0.0
52339.0,STARLINK-3792,PAYLOAD,2023-10-10 01:39:57,15.08842432,0.0001762,53.2163,206.5116,82.3729,277.7463,-6.1887e-05,-1.273e-05,0.0,0 STARLINK-3792,1 52339U 22045J   23283.06941135 -.00001273  00000-0 -61887-4 0  9991,2 52339  53.2163 206.5116 0001762  82.3729 277.7463 15.08842432 82555,6917.873,95.437,540.957,538.519,0.0
52339.0,STARLINK-3792,PAYLOAD,2023-10-10 04:50:43,15.08844824,0.0001813,53.2159,205.9147,91.168,268.952,1.7794e-05,-5e-08,0.0,0 STARLINK-3792,1 52339U 22045J   23283.20188981 -.00000005  00000-0  17794-4 0  9998,2 52339  53.2159 205.9147 0001813  91.1680 268.9520 15.08844824 82573,6917.866,95.437,540.985,538.476,0.0
52339.0,STARLINK-3792,PAYLOAD,2023-10-11 03:06:07,15.08844197,0.0001658,53.2175,201.7507,95.5826,264.5356,1.9992e-05,3e-07,0.0,0 STARLINK-3792,1 52339U 22045J   23284.12925151  .00000030  00000-0  19992-4 0  9997,2 52339  53.2175 201.7507 0001658  95.5826 264.5356 15.08844197 82710,6917.868,95.437,540.88,538.586,0.0
52339.0,STARLINK-3792,PAYLOAD,2023-10-11 11:03:03,15.08838995,0.0001523,53.2168,200.2653,96.355,263.7615,-3.5614e-05,-8.55e-06,0.0,0 STARLINK-3792,1 52339U 22045J   23284.46045468 -.00000855  00000-0 -35614-4 0  9994,2 52339  53.2168 200.2653 0001523  96.3550 263.7615 15.08838995 82765,6917.883,95.438,540.802,538.695,0.0
52339.0,STARLINK-3792,PAYLOAD,2023-10-11 18:59:59,15.0883059,0.0001636,53.2168,198.7795,104.9954,255.1219,0.00011746,1.581e-05,0.0,0 STARLINK-3792,1 52339U 22045J   23284.79166512  .00001581  00000-0  11746-3 0  9998,2 52339  53.2168 198.7795 0001636 104.9954 255.1219 15.08830590 82816,6917.909,95.438,540.906,538.642,0.0
52339.0,STARLINK-3792,PAYLOAD,2023-10-12 01:21:31,15.08846741,0.0001517,53.2176,197.5942,100.9281,259.1882,0.00033909,5.114e-05,0.0,0 STARLINK-3792,1 52339U 22045J   23285.05661737  .00005114  00000-0  33909-3 0  9998,2 52339  53.2176 197.5942 0001517 100.9281 259.1882 15.08846741 82852,6917.86,95.437,540.774,538.675,0.0
52339.0,STARLINK-3792,PAYLOAD,2023-10-12 10:53:50,15.08844761,0.0001329,53.2163,195.8079,105.5876,254.5263,0.00028083,4.185e-05,0.0,0 STARLINK-3792,1 52339U 22045J   23285.45405702  .00004185  00000-0  28083-3 0  9994,2 52339  53.2163 195.8079 0001329 105.5876 254.5263 15.08844761 82911,6917.866,95.437,540.65,538.811,0.0
52339.0,STARLINK-3792,PAYLOAD,2023-10-12 22:01:32,15.08837151,0.000114,53.2162,193.7257,96.2848,263.8274,2.1404e-05,5.3e-07,0.0,0 STARLINK-3792,1 52339U 22045J   23285.91774052  .00000053  00000-0  21404-4 0  9993,2 52339  53.2162 193.7257 0001140  96.2848 263.8274 15.08837151 82988,6917.889,95.438,540.543,538.965,0.0
52339.0,STARLINK-3792,PAYLOAD,2023-10-13 04:23:04,15.08854098,0.0001275,53.2152,192.536,103.383,256.7305,0.00034671,5.236e-05,0.0,0 STARLINK-3792,1 52339U 22045J   23286.18269388  .00005236  00000-0  34671-3 0  9991,2 52339  53.2152 192.5360 0001275 103.3830 256.7305 15.08854098 83020,6917.837,95.437,540.584,538.82,0.0
52339.0,STARLINK-3792,PAYLOAD,2023-10-13 10:44:37,15.08849957,0.0001074,53.216,191.3467,90.2339,269.8776,0.00033797,5.096e-05,0.0,0 STARLINK-3792,1 52339U 22045J   23286.44765644  .00005096  00000-0  33797-3 0  9998,2 52339  53.2160 191.3467 0001074  90.2339 269.8776 15.08849957 83068,6917.85,95.437,540.458,538.972,0.0
52339.0,STARLINK-3792,PAYLOAD,2023-10-13 21:52:19,15.08840939,0.0001081,53.2144,189.2629,81.3338,278.7777,4.9241e-05,4.96e-06,0.0,0 STARLINK-3792,1 52339U 22045J   23286.91133740  .00000496  00000-0  49241-4 0  9997,2 52339  53.2144 189.2629 0001081  81.3338 278.7777 15.08840939 83133,6917.878,95.437,540.49,538.995,0.0
52339.0,STARLINK-3792,PAYLOAD,2023-10-14 10:35:24,15.08837922,0.000164,53.2154,186.8866,90.5194,269.5986,-4.817e-05,-1.055e-05,0.0,0 STARLINK-3792,1 52339U 22045J   23287.44125960 -.00001055  00000-0 -48170-4 0  9995,2 52339  53.2154 186.8866 0001640  90.5194 269.5986 15.08837922 83210,6917.887,95.438,540.886,538.617,0.0
